*******************************************************************************
Ephemeris / WWW_USER Mon Mar 10 08:42:34 2025 Pasadena, USA      / Horizons    
*******************************************************************************
Target body name: ASASSN (C/2017 O1)              {source: JPL#21}
Center body name: Earth (399)                     {source: DE441}
Center-site name: Mauna Kea
*******************************************************************************
Start time      : A.D. 2018-Aug-02 05:08:00.0000 UT      
Stop  time      : A.D. 2018-Aug-02 15:48:00.0000 UT      
Step-size       : 1 minutes
*******************************************************************************
Target pole/equ : undefined
Target radii    : undefined                                                    
Center geodetic : 204.5278, 19.8260847, 4.21024   {E-lon(deg),Lat(deg),Alt(km)}
Center cylindric: 204.5278, 6006.35451, 2151.0229 {E-lon(deg),Dxy(km),Dz(km)}
Center pole/equ : ITRF93                          {East-longitude positive}
Center radii    : 6378.137, 6378.137, 6356.752 km {Equator_a, b, pole_c}       
Target primary  : Sun
Vis. interferer : MOON (R_eq= 1737.400) km        {source: DE441}
Rel. light bend : Sun                             {source: DE441}
Rel. lght bnd GM: 1.3271E+11 km^3/s^2                                          
Small-body perts: Yes                             {source: SB441-N16}
Atmos refraction: NO (AIRLESS)
RA format       : HMS
Time format     : CAL 
Calendar mode   : Mixed Julian/Gregorian
RTS-only print  : NO       
EOP file        : eop.250307.p250603                                           
EOP coverage    : DATA-BASED 1962-JAN-20 TO 2025-MAR-07. PREDICTS-> 2025-JUN-02
Units conversion: 1 au= 149597870.700 km, c= 299792.458 km/s, 1 day= 86400.0 s 
Table cut-offs 1: Elevation (-90.0deg=NO ),Airmass (>38.000=NO), Daylight (YES)
Table cut-offs 2: Solar elongation (  0.0,180.0=NO ),Local Hour Angle( 0.0=NO )
Table cut-offs 3: RA/DEC angular rate (     0.0=NO )                           
*******************************************************************************
Initial IAU76/J2000 heliocentric ecliptic osculating elements (au, days, deg.):
  EPOCH=  2458039.5 ! 2017-Oct-13.0000000 (TDB)    RMSW= n.a.                  
   EC= .9964254882304144   QR= 1.498687032290766   TP= 2458041.2851755521      
   OM= 25.80948799039273   W= 20.90785287564418    IN= 39.84841297991522       
  Equivalent ICRF heliocentric cartesian coordinates (au, au/d):
   X= 1.103880574170232E+00  Y= 7.544591652134763E-01  Z= 6.774428678789283E-01
  VX=-1.240653547490291E-02 VY= 4.322571932715848E-03 VZ= 1.488380440184248E-02
Comet physical (GM= km^3/s^2; RAD= km):                                        
   GM= n.a.                RAD= n.a.                                           
   M1=  12.4     M2=  n.a.     k1=  8.75   k2= n.a.     PHCOF= n.a.            
*******************************************************************************
 Date__(UT)__HR:MN     R.A._________(ICRF)_________DEC
******************************************************
$$SOE
 2018-Aug-02 09:18  m  10 55 42.957205 +35 09 47.18896
 2018-Aug-02 09:19  m  10 55 43.006606 +35 09 46.75183
 2018-Aug-02 09:20  m  10 55 43.056009 +35 09 46.31471
 2018-Aug-02 09:21  m  10 55 43.105415 +35 09 45.87761
 2018-Aug-02 09:22  m  10 55 43.154822 +35 09 45.44053
 2018-Aug-02 09:23  m  10 55 43.204231 +35 09 45.00345
 2018-Aug-02 09:24  m  10 55 43.253642 +35 09 44.56640
 2018-Aug-02 09:25  m  10 55 43.303054 +35 09 44.12936
 2018-Aug-02 09:26  m  10 55 43.352469 +35 09 43.69233
 2018-Aug-02 09:27  m  10 55 43.401886 +35 09 43.25532
 2018-Aug-02 09:28  m  10 55 43.451304 +35 09 42.81833
 2018-Aug-02 09:29  m  10 55 43.500725 +35 09 42.38135
 2018-Aug-02 09:30  m  10 55 43.550147 +35 09 41.94438
 2018-Aug-02 09:31  m  10 55 43.599571 +35 09 41.50743
 2018-Aug-02 09:32  m  10 55 43.648997 +35 09 41.07050
 2018-Aug-02 09:33  m  10 55 43.698425 +35 09 40.63358
 2018-Aug-02 09:34  m  10 55 43.747855 +35 09 40.19668
 2018-Aug-02 09:35  m  10 55 43.797287 +35 09 39.75979
 2018-Aug-02 09:36  m  10 55 43.846720 +35 09 39.32292
 2018-Aug-02 09:37  m  10 55 43.896155 +35 09 38.88606
 2018-Aug-02 09:38  m  10 55 43.945593 +35 09 38.44922
 2018-Aug-02 09:39  m  10 55 43.995031 +35 09 38.01240
 2018-Aug-02 09:40  m  10 55 44.044472 +35 09 37.57559
 2018-Aug-02 09:41  m  10 55 44.093915 +35 09 37.13880
 2018-Aug-02 09:42  m  10 55 44.143359 +35 09 36.70202
 2018-Aug-02 09:43  m  10 55 44.192805 +35 09 36.26526
 2018-Aug-02 09:44  m  10 55 44.242253 +35 09 35.82852
 2018-Aug-02 09:45  m  10 55 44.291702 +35 09 35.39179
 2018-Aug-02 09:46  m  10 55 44.341153 +35 09 34.95508
 2018-Aug-02 09:47  m  10 55 44.390606 +35 09 34.51838
 2018-Aug-02 09:48  m  10 55 44.440061 +35 09 34.08171
 2018-Aug-02 09:49  m  10 55 44.489517 +35 09 33.64504
 2018-Aug-02 09:50  m  10 55 44.538976 +35 09 33.20840
 2018-Aug-02 09:51  m  10 55 44.588435 +35 09 32.77177
 2018-Aug-02 09:52  m  10 55 44.637897 +35 09 32.33516
 2018-Aug-02 09:53  m  10 55 44.687360 +35 09 31.89856
 2018-Aug-02 09:54  m  10 55 44.736825 +35 09 31.46198
 2018-Aug-02 09:55  m  10 55 44.786292 +35 09 31.02542
 2018-Aug-02 09:56  m  10 55 44.835760 +35 09 30.58887
 2018-Aug-02 09:57  m  10 55 44.885230 +35 09 30.15234
 2018-Aug-02 09:58  m  10 55 44.934701 +35 09 29.71583
 2018-Aug-02 09:59  m  10 55 44.984174 +35 09 29.27933
 2018-Aug-02 10:00  m  10 55 45.033649 +35 09 28.84286
 2018-Aug-02 10:01  m  10 55 45.083125 +35 09 28.40640
 2018-Aug-02 10:02  m  10 55 45.132603 +35 09 27.96995
 2018-Aug-02 10:03  m  10 55 45.182083 +35 09 27.53353
 2018-Aug-02 10:04  m  10 55 45.231564 +35 09 27.09712
 2018-Aug-02 10:05  m  10 55 45.281046 +35 09 26.66072
 2018-Aug-02 10:06  m  10 55 45.330530 +35 09 26.22435
 2018-Aug-02 10:07  m  10 55 45.380016 +35 09 25.78799
 2018-Aug-02 10:08  m  10 55 45.429503 +35 09 25.35165
 2018-Aug-02 10:09  m  10 55 45.478992 +35 09 24.91533
 2018-Aug-02 10:10  m  10 55 45.528483 +35 09 24.47902
 2018-Aug-02 10:11  m  10 55 45.577974 +35 09 24.04274
 2018-Aug-02 10:12  m  10 55 45.627468 +35 09 23.60647
 2018-Aug-02 10:13  m  10 55 45.676963 +35 09 23.17021
 2018-Aug-02 10:14  m  10 55 45.726459 +35 09 22.73398
 2018-Aug-02 10:15  m  10 55 45.775957 +35 09 22.29776
 2018-Aug-02 10:16  m  10 55 45.825456 +35 09 21.86156
 2018-Aug-02 10:17  m  10 55 45.874957 +35 09 21.42538
 2018-Aug-02 10:18  m  10 55 45.924459 +35 09 20.98922
 2018-Aug-02 10:19  m  10 55 45.973962 +35 09 20.55308
 2018-Aug-02 10:20  m  10 55 46.023467 +35 09 20.11695
 2018-Aug-02 10:21  m  10 55 46.072974 +35 09 19.68084
 2018-Aug-02 10:22  m  10 55 46.122481 +35 09 19.24475
 2018-Aug-02 10:23  m  10 55 46.171991 +35 09 18.80868
 2018-Aug-02 10:24  m  10 55 46.221501 +35 09 18.37262
 2018-Aug-02 10:25  m  10 55 46.271013 +35 09 17.93659
 2018-Aug-02 10:26  m  10 55 46.320526 +35 09 17.50057
 2018-Aug-02 10:27  m  10 55 46.370041 +35 09 17.06457
 2018-Aug-02 10:28  m  10 55 46.419557 +35 09 16.62859
 2018-Aug-02 10:29  m  10 55 46.469074 +35 09 16.19263
 2018-Aug-02 10:30  m  10 55 46.518593 +35 09 15.75668
 2018-Aug-02 10:31  m  10 55 46.568113 +35 09 15.32076
 2018-Aug-02 10:32  m  10 55 46.617634 +35 09 14.88485
 2018-Aug-02 10:33  m  10 55 46.667157 +35 09 14.44896
 2018-Aug-02 10:34  m  10 55 46.716681 +35 09 14.01309
 2018-Aug-02 10:35  m  10 55 46.766206 +35 09 13.57724
 2018-Aug-02 10:36  m  10 55 46.815732 +35 09 13.14141
 2018-Aug-02 10:37  m  10 55 46.865259 +35 09 12.70559
 2018-Aug-02 10:38  m  10 55 46.914788 +35 09 12.26980
 2018-Aug-02 10:39  m  10 55 46.964318 +35 09 11.83402
 2018-Aug-02 10:40  m  10 55 47.013850 +35 09 11.39827
 2018-Aug-02 10:41  m  10 55 47.063382 +35 09 10.96253
 2018-Aug-02 10:42  m  10 55 47.112916 +35 09 10.52681
 2018-Aug-02 10:43  m  10 55 47.162451 +35 09 10.09111
 2018-Aug-02 10:44  m  10 55 47.211987 +35 09 09.65543
 2018-Aug-02 10:45  m  10 55 47.261524 +35 09 09.21977
 2018-Aug-02 10:46  m  10 55 47.311062 +35 09 08.78412
 2018-Aug-02 10:47  m  10 55 47.360602 +35 09 08.34850
 2018-Aug-02 10:48  m  10 55 47.410142 +35 09 07.91290
 2018-Aug-02 10:49  m  10 55 47.459684 +35 09 07.47731
 2018-Aug-02 10:50  m  10 55 47.509227 +35 09 07.04174
 2018-Aug-02 10:51  m  10 55 47.558771 +35 09 06.60620
 2018-Aug-02 10:52  m  10 55 47.608316 +35 09 06.17067
 2018-Aug-02 10:53  m  10 55 47.657862 +35 09 05.73516
 2018-Aug-02 10:54  m  10 55 47.707409 +35 09 05.29968
 2018-Aug-02 10:55  m  10 55 47.756957 +35 09 04.86421
 2018-Aug-02 10:56  m  10 55 47.806506 +35 09 04.42876
 2018-Aug-02 10:57  m  10 55 47.856057 +35 09 03.99333
 2018-Aug-02 10:58  m  10 55 47.905608 +35 09 03.55792
 2018-Aug-02 10:59  m  10 55 47.955160 +35 09 03.12253
 2018-Aug-02 11:00  m  10 55 48.004713 +35 09 02.68716
 2018-Aug-02 11:01  m  10 55 48.054268 +35 09 02.25180
 2018-Aug-02 11:02  m  10 55 48.103823 +35 09 01.81647
 2018-Aug-02 11:03  m  10 55 48.153379 +35 09 01.38116
 2018-Aug-02 11:04  m  10 55 48.202937 +35 09 00.94587
 2018-Aug-02 11:05  m  10 55 48.252495 +35 09 00.51060
 2018-Aug-02 11:06  m  10 55 48.302054 +35 09 00.07535
 2018-Aug-02 11:07  m  10 55 48.351614 +35 08 59.64011
 2018-Aug-02 11:08  m  10 55 48.401175 +35 08 59.20490
 2018-Aug-02 11:09  m  10 55 48.450736 +35 08 58.76971
 2018-Aug-02 11:10  m  10 55 48.500299 +35 08 58.33454
 2018-Aug-02 11:11  m  10 55 48.549863 +35 08 57.89938
 2018-Aug-02 11:12  m  10 55 48.599427 +35 08 57.46425
 2018-Aug-02 11:13  m  10 55 48.648993 +35 08 57.02914
 2018-Aug-02 11:14  m  10 55 48.698559 +35 08 56.59405
 2018-Aug-02 11:15  m  10 55 48.748126 +35 08 56.15897
 2018-Aug-02 11:16  m  10 55 48.797693 +35 08 55.72392
 2018-Aug-02 11:17  m  10 55 48.847262 +35 08 55.28889
 2018-Aug-02 11:18  m  10 55 48.896831 +35 08 54.85388
 2018-Aug-02 11:19  m  10 55 48.946402 +35 08 54.41889
 2018-Aug-02 11:20  m  10 55 48.995973 +35 08 53.98391
 2018-Aug-02 11:21  m  10 55 49.045544 +35 08 53.54896
 2018-Aug-02 11:22  m  10 55 49.095117 +35 08 53.11403
